[{"OBJECT_NAME":"STARLINK-6049","OBJECT_ID":"2023-078AF","EPOCH":"2026-03-09T22:18:23.025888","MEAN_MOTION":14.98326107,"ECCENTRICITY":0.00025054,"INCLINATION":70.0006,"RA_OF_ASC_NODE":343.9548,"ARG_OF_PERICENTER":263.0941,"MEAN_ANOMALY":96.9933,"EPHEMERIS_TYPE":0,"CLASSIFICATION_TYPE":"U","NORAD_CAT_ID":56796,"ELEMENT_SET_NO":999,"REV_AT_EPOCH":15271,"BSTAR":2.6098056e-5,"MEAN_MOTION_DOT":2.18e-6,"MEAN_MOTION_DDOT":0},{"OBJECT_NAME":"CZ-6A DEB","OBJECT_ID":"2022-151VV","EPOCH":"2026-03-08T17:43:15.672576","MEAN_MOTION":14.82427475,"ECCENTRICITY":0.00668974,"INCLINATION":98.6186,"RA_OF_ASC_NODE":135.292,"ARG_OF_PERICENTER":209.1014,"MEAN_ANOMALY":150.6462,"EPHEMERIS_TYPE":0,"CLASSIFICATION_TYPE":"U","NORAD_CAT_ID":55204,"ELEMENT_SET_NO":999,"REV_AT_EPOCH":17094,"BSTAR":0.0050164645,"MEAN_MOTION_DOT":0.00041979,"MEAN_MOTION_DDOT":0}]
